{
  "type": "FeatureCollection",
  "features": [
    {
      "type": "Feature",
      "properties": {
        "norad_id": 34614,
        "name": "COSMOS 2251 DEB",
        "group": "cosmos-2251-debris",
        "lat": 22.2609921083112,
        "lon": 167.66064766351658,
        "alt_km": 972.6636211668583,
        "timestamp": "2025-12-06T20:37:56.470290+00:00",
        "meta_object_name": "COSMOS 2251 DEB",
        "meta_object_id": "1993-036WK",
        "meta_epoch": "2025-12-06T01:24:11.041632",
        "meta_mean_motion": 14.17216648,
        "meta_eccentricity": 0.01971679,
        "meta_inclination": 73.8748,
        "meta_ra_of_asc_node": 355.9025,
        "meta_arg_of_pericenter": 350.8037,
        "meta_mean_anomaly": 39.1163,
        "meta_ephemeris_type": 0,
        "meta_classification_type": "U",
        "meta_norad_cat_id": 34614,
        "meta_element_set_no": 999,
        "meta_rev_at_epoch": 84672,
        "meta_bstar": 0.0078134929,
        "meta_mean_motion_dot": 0.00019106,
        "meta_mean_motion_ddot": 0,
        "tle_line1": "1 34614U 93036WK  25340.05846113  .00019106  00000+0  78135-2 0  9993",
        "tle_line2": "2 34614  73.8748 355.9025 0197167 350.8037  39.1163 14.17216648846723"
      },
      "geometry": {
        "type": "Point",
        "coordinates": [
          167.66064766351658,
          22.2609921083112
        ]
      }
    },
    {
      "type": "Feature",
      "properties": {
        "norad_id": 34615,
        "name": "COSMOS 2251 DEB",
        "group": "cosmos-2251-debris",
        "lat": -8.757285760382107,
        "lon": -58.95972188920746,
        "alt_km": 1288.0273778589972,
        "timestamp": "2025-12-06T20:37:56.470301+00:00",
        "meta_object_name": "COSMOS 2251 DEB",
        "meta_object_id": "1993-036WL",
        "meta_epoch": "2025-12-06T09:02:40.664256",
        "meta_mean_motion": 13.52199874,
        "meta_eccentricity": 0.04018612,
        "meta_inclination": 74.0049,
        "meta_ra_of_asc_node": 304.3467,
        "meta_arg_of_pericenter": 212.9074,
        "meta_mean_anomaly": 305.531,
        "meta_ephemeris_type": 0,
        "meta_classification_type": "U",
        "meta_norad_cat_id": 34615,
        "meta_element_set_no": 999,
        "meta_rev_at_epoch": 82729,
        "meta_bstar": 0.00029825034,
        "meta_mean_motion_dot": 3.04e-06,
        "meta_mean_motion_ddot": 0,
        "tle_line1": "1 34615U 93036WL  25340.37685954  .00000304  00000+0  29825-3 0  9996",
        "tle_line2": "2 34615  74.0049 304.3467 0401861 212.9074 305.5310 13.52199874827291"
      },
      "geometry": {
        "type": "Point",
        "coordinates": [
          -58.95972188920746,
          -8.757285760382107
        ]
      }
    },
    {
      "type": "Feature",
      "properties": {
        "norad_id": 34619,
        "name": "COSMOS 2251 DEB",
        "group": "cosmos-2251-debris",
        "lat": 37.45259409741116,
        "lon": -136.10238428709908,
        "alt_km": 676.7911176660746,
        "timestamp": "2025-12-06T20:37:56.470312+00:00",
        "meta_object_name": "COSMOS 2251 DEB",
        "meta_object_id": "1993-036WQ",
        "meta_epoch": "2025-12-06T15:32:12.892416",
        "meta_mean_motion": 14.64622508,
        "meta_eccentricity": 0.00946336,
        "meta_inclination": 74.0443,
        "meta_ra_of_asc_node": 211.646,
        "meta_arg_of_pericenter": 307.9002,
        "meta_mean_anomaly": 51.3635,
        "meta_ephemeris_type": 0,
        "meta_classification_type": "U",
        "meta_norad_cat_id": 34619,
        "meta_element_set_no": 999,
        "meta_rev_at_epoch": 89209,
        "meta_bstar": 0.00044472827,
        "meta_mean_motion_dot": 2.49e-05,
        "meta_mean_motion_ddot": 0,
        "tle_line1": "1 34619U 93036WQ  25340.64737144  .00002490  00000+0  44473-3 0  9993",
        "tle_line2": "2 34619  74.0443 211.6460 0094633 307.9002  51.3635 14.64622508892092"
      },
      "geometry": {
        "type": "Point",
        "coordinates": [
          -136.10238428709908,
          37.45259409741116
        ]
      }
    },
    {
      "type": "Feature",
      "properties": {
        "norad_id": 34620,
        "name": "COSMOS 2251 DEB",
        "group": "cosmos-2251-debris",
        "lat": -61.35420991920326,
        "lon": 82.11394672158356,
        "alt_km": 682.303642474144,
        "timestamp": "2025-12-06T20:37:56.470324+00:00",
        "meta_object_name": "COSMOS 2251 DEB",
        "meta_object_id": "1993-036WR",
        "meta_epoch": "2025-12-06T02:55:29.201664",
        "meta_mean_motion": 14.48929095,
        "meta_eccentricity": 0.00814922,
        "meta_inclination": 74.0515,
        "meta_ra_of_asc_node": 231.9286,
        "meta_arg_of_pericenter": 269.8772,
        "meta_mean_anomaly": 89.305,
        "meta_ephemeris_type": 0,
        "meta_classification_type": "U",
        "meta_norad_cat_id": 34620,
        "meta_element_set_no": 999,
        "meta_rev_at_epoch": 86731,
        "meta_bstar": 0.0036230306,
        "meta_mean_motion_dot": 0.00014311,
        "meta_mean_motion_ddot": 0,
        "tle_line1": "1 34620U 93036WR  25340.12186576  .00014311  00000+0  36230-2 0  9991",
        "tle_line2": "2 34620  74.0515 231.9286 0081492 269.8772  89.3050 14.48929095867316"
      },
      "geometry": {
        "type": "Point",
        "coordinates": [
          82.11394672158356,
          -61.35420991920326
        ]
      }
    },
    {
      "type": "Feature",
      "properties": {
        "norad_id": 34622,
        "name": "COSMOS 2251 DEB",
        "group": "cosmos-2251-debris",
        "lat": 73.12042604163243,
        "lon": 66.99893064930707,
        "alt_km": 766.6906740606019,
        "timestamp": "2025-12-06T20:37:56.470335+00:00",
        "meta_object_name": "COSMOS 2251 DEB",
        "meta_object_id": "1993-036WT",
        "meta_epoch": "2025-12-06T09:04:10.119360",
        "meta_mean_motion": 14.22003316,
        "meta_eccentricity": 0.01041069,
        "meta_inclination": 74.0417,
        "meta_ra_of_asc_node": 318.4259,
        "meta_arg_of_pericenter": 42.4821,
        "meta_mean_anomaly": 106.7002,
        "meta_ephemeris_type": 0,
        "meta_classification_type": "U",
        "meta_norad_cat_id": 34622,
        "meta_element_set_no": 999,
        "meta_rev_at_epoch": 86369,
        "meta_bstar": 0.0019793968,
        "meta_mean_motion_dot": 4.6e-05,
        "meta_mean_motion_ddot": 0,
        "tle_line1": "1 34622U 93036WT  25340.37789490  .00004600  00000+0  19794-2 0  9990",
        "tle_line2": "2 34622  74.0417 318.4259 0104106  42.4821 106.7002 14.22003316863697"
      },
      "geometry": {
        "type": "Point",
        "coordinates": [
          66.99893064930707,
          73.12042604163243
        ]
      }
    },
    {
      "type": "Feature",
      "properties": {
        "norad_id": 34626,
        "name": "COSMOS 2251 DEB",
        "group": "cosmos-2251-debris",
        "lat": -57.12068982580546,
        "lon": -50.936910663530995,
        "alt_km": 672.0246494009807,
        "timestamp": "2025-12-06T20:37:56.470351+00:00",
        "meta_object_name": "COSMOS 2251 DEB",
        "meta_object_id": "1993-036WX",
        "meta_epoch": "2025-12-06T10:10:09.840864",
        "meta_mean_motion": 14.72081128,
        "meta_eccentricity": 0.00262614,
        "meta_inclination": 74.048,
        "meta_ra_of_asc_node": 336.1727,
        "meta_arg_of_pericenter": 66.3906,
        "meta_mean_anomaly": 83.6539,
        "meta_ephemeris_type": 0,
        "meta_classification_type": "U",
        "meta_norad_cat_id": 34626,
        "meta_element_set_no": 999,
        "meta_rev_at_epoch": 89051,
        "meta_bstar": 0.0016799052,
        "meta_mean_motion_dot": 0.00010607,
        "meta_mean_motion_ddot": 0,
        "tle_line1": "1 34626U 93036WX  25340.42372501  .00010607  00000+0  16799-2 0  9997",
        "tle_line2": "2 34626  74.0480 336.1727 0026261  66.3906  83.6539 14.72081128890513"
      },
      "geometry": {
        "type": "Point",
        "coordinates": [
          -50.936910663530995,
          -57.12068982580546
        ]
      }
    },
    {
      "type": "Feature",
      "properties": {
        "norad_id": 34634,
        "name": "COSMOS 2251 DEB",
        "group": "cosmos-2251-debris",
        "lat": 73.52900354343936,
        "lon": 150.84504235333353,
        "alt_km": 684.5573050885305,
        "timestamp": "2025-12-06T20:37:56.470363+00:00",
        "meta_object_name": "COSMOS 2251 DEB",
        "meta_object_id": "1993-036XF",
        "meta_epoch": "2025-12-06T15:58:15.089088",
        "meta_mean_motion": 14.55630913,
        "meta_eccentricity": 0.00445174,
        "meta_inclination": 74.053,
        "meta_ra_of_asc_node": 46.4725,
        "meta_arg_of_pericenter": 155.6263,
        "meta_mean_anomaly": 1.5534,
        "meta_ephemeris_type": 0,
        "meta_classification_type": "U",
        "meta_norad_cat_id": 34634,
        "meta_element_set_no": 999,
        "meta_rev_at_epoch": 88693,
        "meta_bstar": 0.00071050713,
        "meta_mean_motion_dot": 3.115e-05,
        "meta_mean_motion_ddot": 0,
        "tle_line1": "1 34634U 93036XF  25340.66545242  .00003115  00000+0  71051-3 0  9995",
        "tle_line2": "2 34634  74.0530  46.4725 0044517 155.6263   1.5534 14.55630913886937"
      },
      "geometry": {
        "type": "Point",
        "coordinates": [
          150.84504235333353,
          73.52900354343936
        ]
      }
    }
  ]
}